ONEWEB-0560             
1 55145U 23004F   24313.68854261  .00000065  00000+0  13299-3 0  9999
2 55145  87.9084  91.9975 0001591  82.5997 277.5316 13.18687723 92541
ONEWEB-0565             
1 55146U 23004G   24313.68221447  .00000150  00000+0  34848-3 0  9992
2 55146  87.9081  92.0699 0001058  78.9451 281.1800 13.18686624 92533
ONEWEB-0567             
1 55147U 23004H   24313.67588853  .00000127  00000+0  29035-3 0  9995
2 55147  87.9080  92.0255 0001374  77.1229 283.0057 13.18688098 92538
ONEWEB-0569             
1 55148U 23004J   24313.35383611  .00000187  00000+0  47823-3 0  9997
2 55148  87.8912  76.7301 0001623  59.5494 300.5795 13.13469962 93276
ONEWEB-0570             
1 55149U 23004K   24313.66324693  .00000152  00000+0  35329-3 0  9997
2 55149  87.9080  92.0278 0000973 117.9928 242.1302 13.18686744 92522
ONEWEB-0571             
1 55150U 23004L   24313.65690288 -.00000522  00000+0 -13563-2 0  9992
2 55150  87.9085  92.0362 0000976  53.6150 306.5072 13.18693701 92530
ONEWEB-0572             
1 55151U 23004M   24313.74772203  .00000117  00000+0  26742-3 0  9993
2 55151  87.9070 122.4933 0001268  88.6341 271.4936 13.17646886 90383
ONEWEB-0573             
1 55152U 23004N   24313.65059796  .00000145  00000+0  33473-3 0  9999
2 55152  87.9079  92.0516 0000694  71.1636 288.9572 13.18685985 92529
